{
  "type": "FeatureCollection",
  "features": [
    {
      "type": "Feature",
      "properties": {
        "norad_id": 66933,
        "name": "STARLINK-36157",
        "group": "last-30-days",
        "lat": 41.05760740428807,
        "lon": 46.70127244240282,
        "alt_km": 341.20605247749063,
        "timestamp": "2025-12-21T14:40:46.635875+00:00",
        "meta_object_name": "STARLINK-36157",
        "meta_object_id": "2025-286J",
        "meta_epoch": "2025-12-21T06:00:00.999648",
        "meta_mean_motion": 15.74361791,
        "meta_eccentricity": 7.551e-05,
        "meta_inclination": 53.1576,
        "meta_ra_of_asc_node": 7.7199,
        "meta_arg_of_pericenter": 64.4477,
        "meta_mean_anomaly": 100.0803,
        "meta_ephemeris_type": 0,
        "meta_classification_type": "U",
        "meta_norad_cat_id": 66933,
        "meta_element_set_no": 999,
        "meta_rev_at_epoch": 335,
        "meta_bstar": -0.0021408482,
        "meta_mean_motion_dot": -0.0030534,
        "meta_mean_motion_ddot": 0,
        "tle_line1": "1 66933U 25286J   25355.25001157 -.00305340  00000+0 -21408-2 0  9994",
        "tle_line2": "2 66933  53.1576   7.7199 0000755  64.4477 100.0803 15.74361791  3355"
      },
      "geometry": {
        "type": "Point",
        "coordinates": [
          46.70127244240282,
          41.05760740428807
        ]
      }
    },
    {
      "type": "Feature",
      "properties": {
        "norad_id": 66934,
        "name": "STARLINK-36153",
        "group": "last-30-days",
        "lat": 42.19921940695762,
        "lon": 48.75267225998693,
        "alt_km": 341.09335921964157,
        "timestamp": "2025-12-21T14:40:46.635884+00:00",
        "meta_object_name": "STARLINK-36153",
        "meta_object_id": "2025-286K",
        "meta_epoch": "2025-12-21T06:00:00.999648",
        "meta_mean_motion": 15.74315566,
        "meta_eccentricity": 7.362e-05,
        "meta_inclination": 53.1577,
        "meta_ra_of_asc_node": 7.7158,
        "meta_arg_of_pericenter": 87.4195,
        "meta_mean_anomaly": 79.0496,
        "meta_ephemeris_type": 0,
        "meta_classification_type": "U",
        "meta_norad_cat_id": 66934,
        "meta_element_set_no": 999,
        "meta_rev_at_epoch": 335,
        "meta_bstar": -0.0016644651,
        "meta_mean_motion_dot": -0.0023891,
        "meta_mean_motion_ddot": 0,
        "tle_line1": "1 66934U 25286K   25355.25001157 -.00238910  00000+0 -16645-2 0  9990",
        "tle_line2": "2 66934  53.1577   7.7158 0000736  87.4195  79.0496 15.74315566  3355"
      },
      "geometry": {
        "type": "Point",
        "coordinates": [
          48.75267225998693,
          42.19921940695762
        ]
      }
    },
    {
      "type": "Feature",
      "properties": {
        "norad_id": 66935,
        "name": "STARLINK-36127",
        "group": "last-30-days",
        "lat": 43.30026564148306,
        "lon": 50.8745679263303,
        "alt_km": 340.6368068222737,
        "timestamp": "2025-12-21T14:40:46.635894+00:00",
        "meta_object_name": "STARLINK-36127",
        "meta_object_id": "2025-286L",
        "meta_epoch": "2025-12-21T06:00:00.999648",
        "meta_mean_motion": 15.74259875,
        "meta_eccentricity": 0.00011452,
        "meta_inclination": 53.1573,
        "meta_ra_of_asc_node": 7.7119,
        "meta_arg_of_pericenter": 81.7067,
        "meta_mean_anomaly": 86.7072,
        "meta_ephemeris_type": 0,
        "meta_classification_type": "U",
        "meta_norad_cat_id": 66935,
        "meta_element_set_no": 999,
        "meta_rev_at_epoch": 336,
        "meta_bstar": -0.0011464851,
        "meta_mean_motion_dot": -0.00165784,
        "meta_mean_motion_ddot": 0,
        "tle_line1": "1 66935U 25286L   25355.25001157 -.00165784  00000+0 -11465-2 0  9994",
        "tle_line2": "2 66935  53.1573   7.7119 0001145  81.7067  86.7072 15.74259875  3365"
      },
      "geometry": {
        "type": "Point",
        "coordinates": [
          50.8745679263303,
          43.30026564148306
        ]
      }
    },
    {
      "type": "Feature",
      "properties": {
        "norad_id": 66936,
        "name": "STARLINK-36160",
        "group": "last-30-days",
        "lat": 44.37061886681073,
        "lon": 53.094234045966196,
        "alt_km": 340.4996275671774,
        "timestamp": "2025-12-21T14:40:46.635908+00:00",
        "meta_object_name": "STARLINK-36160",
        "meta_object_id": "2025-286M",
        "meta_epoch": "2025-12-21T06:00:00.999648",
        "meta_mean_motion": 15.74248573,
        "meta_eccentricity": 0.00010297,
        "meta_inclination": 53.1575,
        "meta_ra_of_asc_node": 7.7084,
        "meta_arg_of_pericenter": 79.0167,
        "meta_mean_anomaly": 91.3225,
        "meta_ephemeris_type": 0,
        "meta_classification_type": "U",
        "meta_norad_cat_id": 66936,
        "meta_element_set_no": 999,
        "meta_rev_at_epoch": 335,
        "meta_bstar": -0.00095640167,
        "meta_mean_motion_dot": -0.00138771,
        "meta_mean_motion_ddot": 0,
        "tle_line1": "1 66936U 25286M   25355.25001157 -.00138771  00000+0 -95640-3 0  9999",
        "tle_line2": "2 66936  53.1575   7.7084 0001029  79.0167  91.3225 15.74248573  3355"
      },
      "geometry": {
        "type": "Point",
        "coordinates": [
          53.094234045966196,
          44.37061886681073
        ]
      }
    },
    {
      "type": "Feature",
      "properties": {
        "norad_id": 66937,
        "name": "STARLINK-36165",
        "group": "last-30-days",
        "lat": 45.38474476756576,
        "lon": 55.36734727618026,
        "alt_km": 340.4671318149776,
        "timestamp": "2025-12-21T14:40:46.635920+00:00",
        "meta_object_name": "STARLINK-36165",
        "meta_object_id": "2025-286N",
        "meta_epoch": "2025-12-21T06:00:00.999648",
        "meta_mean_motion": 15.74193499,
        "meta_eccentricity": 8.234e-05,
        "meta_inclination": 53.1575,
        "meta_ra_of_asc_node": 7.7038,
        "meta_arg_of_pericenter": 89.1494,
        "meta_mean_anomaly": 83.1203,
        "meta_ephemeris_type": 0,
        "meta_classification_type": "U",
        "meta_norad_cat_id": 66937,
        "meta_element_set_no": 999,
        "meta_rev_at_epoch": 336,
        "meta_bstar": -0.00030522036,
        "meta_mean_motion_dot": -0.00045098,
        "meta_mean_motion_ddot": 0,
        "tle_line1": "1 66937U 25286N   25355.25001157 -.00045098  00000+0 -30522-3 0  9997",
        "tle_line2": "2 66937  53.1575   7.7038 0000823  89.1494  83.1203 15.74193499  3363"
      },
      "geometry": {
        "type": "Point",
        "coordinates": [
          55.36734727618026,
          45.38474476756576
        ]
      }
    },
    {
      "type": "Feature",
      "properties": {
        "norad_id": 66938,
        "name": "STARLINK-36155",
        "group": "last-30-days",
        "lat": 46.36531408415926,
        "lon": 57.755997596856574,
        "alt_km": 340.3318071893518,
        "timestamp": "2025-12-21T14:40:46.635930+00:00",
        "meta_object_name": "STARLINK-36155",
        "meta_object_id": "2025-286P",
        "meta_epoch": "2025-12-21T06:00:00.999648",
        "meta_mean_motion": 15.742202,
        "meta_eccentricity": 8.502e-05,
        "meta_inclination": 53.1575,
        "meta_ra_of_asc_node": 7.6996,
        "meta_arg_of_pericenter": 92.3086,
        "meta_mean_anomaly": 81.8781,
        "meta_ephemeris_type": 0,
        "meta_classification_type": "U",
        "meta_norad_cat_id": 66938,
        "meta_element_set_no": 999,
        "meta_rev_at_epoch": 335,
        "meta_bstar": -0.00061465354,
        "meta_mean_motion_dot": -0.00089812,
        "meta_mean_motion_ddot": 0,
        "tle_line1": "1 66938U 25286P   25355.25001157 -.00089812  00000+0 -61465-3 0  9990",
        "tle_line2": "2 66938  53.1575   7.6996 0000850  92.3086  81.8781 15.74220200  3355"
      },
      "geometry": {
        "type": "Point",
        "coordinates": [
          57.755997596856574,
          46.36531408415926
        ]
      }
    },
    {
      "type": "Feature",
      "properties": {
        "norad_id": 66939,
        "name": "STARLINK-36154",
        "group": "last-30-days",
        "lat": 48.155901209387544,
        "lon": 62.753416414619814,
        "alt_km": 339.7040166422694,
        "timestamp": "2025-12-21T14:40:46.635939+00:00",
        "meta_object_name": "STARLINK-36154",
        "meta_object_id": "2025-286Q",
        "meta_epoch": "2025-12-21T06:00:00.999648",
        "meta_mean_motion": 15.74201964,
        "meta_eccentricity": 0.00013082,
        "meta_inclination": 53.1575,
        "meta_ra_of_asc_node": 7.6917,
        "meta_arg_of_pericenter": 81.4277,
        "meta_mean_anomaly": 96.6001,
        "meta_ephemeris_type": 0,
        "meta_classification_type": "U",
        "meta_norad_cat_id": 66939,
        "meta_element_set_no": 999,
        "meta_rev_at_epoch": 336,
        "meta_bstar": -0.00040302784,
        "meta_mean_motion_dot": -0.00059274,
        "meta_mean_motion_ddot": 0,
        "tle_line1": "1 66939U 25286Q   25355.25001157 -.00059274  00000+0 -40303-3 0  9998",
        "tle_line2": "2 66939  53.1575   7.6917 0001308  81.4277  96.6001 15.74201964  3365"
      },
      "geometry": {
        "type": "Point",
        "coordinates": [
          62.753416414619814,
          48.155901209387544
        ]
      }
    }
  ]
}